{
  "type": "FeatureCollection",
  "features": [
    {
      "type": "Feature",
      "properties": {
        "norad_id": 38250,
        "name": "BEIDOU-2 M3 (C11)",
        "group": "beidou",
        "lat": -45.378478172120396,
        "lon": 173.95818082612794,
        "alt_km": 21479.059092407206,
        "timestamp": "2025-12-26T15:29:39.704559+00:00",
        "meta_object_name": "BEIDOU-2 M3 (C11)",
        "meta_object_id": "2012-018A",
        "meta_epoch": "2025-12-24T03:22:03.617760",
        "meta_mean_motion": 1.86230154,
        "meta_eccentricity": 0.00241099,
        "meta_inclination": 55.9106,
        "meta_ra_of_asc_node": 310.7747,
        "meta_arg_of_pericenter": 275.3713,
        "meta_mean_anomaly": 84.3565,
        "meta_ephemeris_type": 0,
        "meta_classification_type": "U",
        "meta_norad_cat_id": 38250,
        "meta_element_set_no": 999,
        "meta_rev_at_epoch": 9268,
        "meta_bstar": 0,
        "meta_mean_motion_dot": -5.3e-07,
        "meta_mean_motion_ddot": 0,
        "tle_line1": "1 38250U 12018A   25358.14031965 -.00000053  00000+0  00000+0 0  9999",
        "tle_line2": "2 38250  55.9106 310.7747 0024109 275.3713  84.3565  1.86230154 92685"
      },
      "geometry": {
        "type": "Point",
        "coordinates": [
          173.95818082612794,
          -45.378478172120396
        ]
      }
    },
    {
      "type": "Feature",
      "properties": {
        "norad_id": 38251,
        "name": "BEIDOU-2 M4 (C12)",
        "group": "beidou",
        "lat": -53.02478134894001,
        "lon": -114.526726081291,
        "alt_km": 21491.7778818763,
        "timestamp": "2025-12-26T15:29:39.704570+00:00",
        "meta_object_name": "BEIDOU-2 M4 (C12)",
        "meta_object_id": "2012-018B",
        "meta_epoch": "2025-12-26T05:17:08.054304",
        "meta_mean_motion": 1.86229703,
        "meta_eccentricity": 0.00151682,
        "meta_inclination": 55.8098,
        "meta_ra_of_asc_node": 309.9329,
        "meta_arg_of_pericenter": 279.718,
        "meta_mean_anomaly": 80.1169,
        "meta_ephemeris_type": 0,
        "meta_classification_type": "U",
        "meta_norad_cat_id": 38251,
        "meta_element_set_no": 999,
        "meta_rev_at_epoch": 9272,
        "meta_bstar": 0,
        "meta_mean_motion_dot": -5.5e-07,
        "meta_mean_motion_ddot": 0,
        "tle_line1": "1 38251U 12018B   25360.22023211 -.00000055  00000+0  00000+0 0  9999",
        "tle_line2": "2 38251  55.8098 309.9329 0015168 279.7180  80.1169  1.86229703 92729"
      },
      "geometry": {
        "type": "Point",
        "coordinates": [
          -114.526726081291,
          -53.02478134894001
        ]
      }
    },
    {
      "type": "Feature",
      "properties": {
        "norad_id": 38775,
        "name": "BEIDOU-2 M6 (C14)",
        "group": "beidou",
        "lat": 46.67456564337346,
        "lon": -156.15088436539796,
        "alt_km": 21545.4859686451,
        "timestamp": "2025-12-26T15:29:39.704581+00:00",
        "meta_object_name": "BEIDOU-2 M6 (C14)",
        "meta_object_id": "2012-050B",
        "meta_epoch": "2025-12-24T07:41:05.368128",
        "meta_mean_motion": 1.86230801,
        "meta_eccentricity": 0.00114872,
        "meta_inclination": 56.388,
        "meta_ra_of_asc_node": 68.6832,
        "meta_arg_of_pericenter": 343.1884,
        "meta_mean_anomaly": 16.8281,
        "meta_ephemeris_type": 0,
        "meta_classification_type": "U",
        "meta_norad_cat_id": 38775,
        "meta_element_set_no": 999,
        "meta_rev_at_epoch": 9005,
        "meta_bstar": 0,
        "meta_mean_motion_dot": -2.4e-07,
        "meta_mean_motion_ddot": 0,
        "tle_line1": "1 38775U 12050B   25358.32020102 -.00000024  00000+0  00000+0 0  9996",
        "tle_line2": "2 38775  56.3880  68.6832 0011487 343.1884  16.8281  1.86230801 90056"
      },
      "geometry": {
        "type": "Point",
        "coordinates": [
          -156.15088436539796,
          46.67456564337346
        ]
      }
    },
    {
      "type": "Feature",
      "properties": {
        "norad_id": 38953,
        "name": "BEIDOU-2 G6 (C02)",
        "group": "beidou",
        "lat": -1.5814627611370906,
        "lon": 51.85827000355027,
        "alt_km": 35761.05963634894,
        "timestamp": "2025-12-26T15:29:39.704592+00:00",
        "meta_object_name": "BEIDOU-2 G6 (C02)",
        "meta_object_id": "2012-059A",
        "meta_epoch": "2025-12-25T22:54:51.748704",
        "meta_mean_motion": 1.00274748,
        "meta_eccentricity": 0.00078835,
        "meta_inclination": 3.9809,
        "meta_ra_of_asc_node": 75.381,
        "meta_arg_of_pericenter": 293.9359,
        "meta_mean_anomaly": 153.0475,
        "meta_ephemeris_type": 0,
        "meta_classification_type": "U",
        "meta_norad_cat_id": 38953,
        "meta_element_set_no": 999,
        "meta_rev_at_epoch": 4817,
        "meta_bstar": 0,
        "meta_mean_motion_dot": -1.55e-06,
        "meta_mean_motion_ddot": 0,
        "tle_line1": "1 38953U 12059A   25359.95476561 -.00000155  00000+0  00000+0 0  9992",
        "tle_line2": "2 38953   3.9809  75.3810 0007883 293.9359 153.0475  1.00274748 48177"
      },
      "geometry": {
        "type": "Point",
        "coordinates": [
          51.85827000355027,
          -1.5814627611370906
        ]
      }
    },
    {
      "type": "Feature",
      "properties": {
        "norad_id": 40549,
        "name": "BEIDOU-3S IGSO-1S (C31)",
        "group": "beidou",
        "lat": 38.71311599236884,
        "lon": 74.42413743467462,
        "alt_km": 35721.981206513876,
        "timestamp": "2025-12-26T15:29:39.704604+00:00",
        "meta_object_name": "BEIDOU-3S IGSO-1S (C31)",
        "meta_object_id": "2015-019A",
        "meta_epoch": "2025-12-25T18:51:43.024032",
        "meta_mean_motion": 1.00290186,
        "meta_eccentricity": 0.00365496,
        "meta_inclination": 49.5274,
        "meta_ra_of_asc_node": 297.5574,
        "meta_arg_of_pericenter": 194.2723,
        "meta_mean_anomaly": 340.4455,
        "meta_ephemeris_type": 0,
        "meta_classification_type": "U",
        "meta_norad_cat_id": 40549,
        "meta_element_set_no": 999,
        "meta_rev_at_epoch": 3933,
        "meta_bstar": 0,
        "meta_mean_motion_dot": -1.76e-06,
        "meta_mean_motion_ddot": 0,
        "tle_line1": "1 40549U 15019A   25359.78591463 -.00000176  00000+0  00000+0 0  9998",
        "tle_line2": "2 40549  49.5274 297.5574 0036549 194.2723 340.4455  1.00290186 39339"
      },
      "geometry": {
        "type": "Point",
        "coordinates": [
          74.42413743467462,
          38.71311599236884
        ]
      }
    },
    {
      "type": "Feature",
      "properties": {
        "norad_id": 40748,
        "name": "BEIDOU-3S M2S (C58)",
        "group": "beidou",
        "lat": 26.118444392242978,
        "lon": 107.92052268768158,
        "alt_km": 21543.377733813883,
        "timestamp": "2025-12-26T15:29:39.704615+00:00",
        "meta_object_name": "BEIDOU-3S M2S (C58)",
        "meta_object_id": "2015-037A",
        "meta_epoch": "2025-12-24T19:32:44.901312",
        "meta_mean_motion": 1.86229543,
        "meta_eccentricity": 0.00118109,
        "meta_inclination": 55.028,
        "meta_ra_of_asc_node": 308.0499,
        "meta_arg_of_pericenter": 271.2412,
        "meta_mean_anomaly": 88.6304,
        "meta_ephemeris_type": 0,
        "meta_classification_type": "U",
        "meta_norad_cat_id": 40748,
        "meta_element_set_no": 999,
        "meta_rev_at_epoch": 7087,
        "meta_bstar": 0,
        "meta_mean_motion_dot": -5.3e-07,
        "meta_mean_motion_ddot": 0,
        "tle_line1": "1 40748U 15037A   25358.81440858 -.00000053  00000+0  00000+0 0  9997",
        "tle_line2": "2 40748  55.0280 308.0499 0011810 271.2412  88.6304  1.86229543 70879"
      },
      "geometry": {
        "type": "Point",
        "coordinates": [
          107.92052268768158,
          26.118444392242978
        ]
      }
    },
    {
      "type": "Feature",
      "properties": {
        "norad_id": 40749,
        "name": "BEIDOU-3S M1S (C57)",
        "group": "beidou",
        "lat": -4.419348091891063,
        "lon": -55.13860457327678,
        "alt_km": 21516.338358344572,
        "timestamp": "2025-12-26T15:29:39.704626+00:00",
        "meta_object_name": "BEIDOU-3S M1S (C57)",
        "meta_object_id": "2015-037B",
        "meta_epoch": "2025-12-25T13:55:00.289344",
        "meta_mean_motion": 1.8625384,
        "meta_eccentricity": 0.00037234,
        "meta_inclination": 55.0236,
        "meta_ra_of_asc_node": 308.0126,
        "meta_arg_of_pericenter": 2.956,
        "meta_mean_anomaly": 357.054,
        "meta_ephemeris_type": 0,
        "meta_classification_type": "U",
        "meta_norad_cat_id": 40749,
        "meta_element_set_no": 999,
        "meta_rev_at_epoch": 7089,
        "meta_bstar": 0,
        "meta_mean_motion_dot": -5.4e-07,
        "meta_mean_motion_ddot": 0,
        "tle_line1": "1 40749U 15037B   25359.57986446 -.00000054  00000+0  00000+0 0  9991",
        "tle_line2": "2 40749  55.0236 308.0126 0003723   2.9560 357.0540  1.86253840 70899"
      },
      "geometry": {
        "type": "Point",
        "coordinates": [
          -55.13860457327678,
          -4.419348091891063
        ]
      }
    }
  ]
}